TIANMU-1 07             
1 57399U 23101A   26065.57454230  .00008352  00000+0  29795-3 0  9991
2 57399  97.2728 118.5929 0004609 142.4105 217.7458 15.29118809145964
STARLINK-32628          
1 62122U 24222J   26068.52081734  .00022673  00000+0  83082-3 0  9990
2 62122  43.0014 137.0954 0001489 276.6665  83.4017 15.27584243 72896
